NORAD_CAT_ID,OBJECT_NAME,OBJECT_TYPE,EPOCH,MEAN_MOTION,ECCENTRICITY,INCLINATION,RA_OF_ASC_NODE,ARG_OF_PERICENTER,MEAN_ANOMALY,BSTAR,MEAN_MOTION_DOT,MEAN_MOTION_DDOT,TLE_LINE0,TLE_LINE1,TLE_LINE2,SEMIMAJOR_AXIS,PERIOD,APOGEE,PERIGEE,DECAYED
49452.0,STARLINK-3150,PAYLOAD,2021-12-22 14:00:01,15.73181398,0.0001999,53.2187,299.6928,29.6826,201.8195,0.00021857,0.00030141,0.0,0 STARLINK-3150,1 49452U 21104AW  21356.58334491  .00030141  00000-0  21857-3 0  9991,2 49452  53.2187 299.6928 0001999  29.6826 201.8195 15.73181398  3687,6727.948,91.534,351.158,348.468,0.0
49452.0,STARLINK-3150,PAYLOAD,2021-12-22 22:00:00,15.73229063,0.0001936,53.2189,298.0433,32.6232,287.789,0.00029203,0.00040615,0.0,0 STARLINK-3150,1 49452U 21104AW  21356.91667824  .00040615  00000-0  29203-3 0  9997,2 49452  53.2189 298.0433 0001936  32.6232 287.7890 15.73229063  3675,6727.812,91.531,350.98,348.375,0.0
49452.0,STARLINK-3150,PAYLOAD,2021-12-23 04:00:01,15.732718099999998,0.0002119,53.2187,296.8078,29.3426,267.86400000000003,-0.00050042,-0.00070489,0.0,0 STARLINK-3150,1 49452U 21104AW  21357.16668981 -.00070489  00000-0 -50042-3 0  9999,2 49452  53.2187 296.8078 0002119  29.3426 267.8640 15.73271810  7523,6727.69,91.529,350.981,348.13,0.0
49452.0,STARLINK-3150,PAYLOAD,2021-12-23 14:00:01,15.73181731,0.0001971,53.2186,294.7445,29.9783,108.389,0.00018639,0.00025598,0.0,0 STARLINK-3150,1 49452U 21104AW  21357.58334491  .00025598  00000-0  18639-3 0  9996,2 49452  53.2186 294.7445 0001971  29.9783 108.3890 15.73181731  3685,6727.946999999999,91.534,351.13800000000015,348.486,0.0
49452.0,STARLINK-3150,PAYLOAD,2021-12-23 20:00:01,15.73188627,0.0001956,53.2185,293.5072,36.0786,78.9633,0.00048289,0.00067667,0.0,0 STARLINK-3150,1 49452U 21104AW  21357.83334491  .00067667  00000-0  48289-3 0  9991,2 49452  53.2185 293.5072 0001956  36.0786  78.9633 15.73188627  7628,6727.928000000001,91.534,351.1090000000001,348.477,0.0
49452.0,STARLINK-3150,PAYLOAD,2021-12-23 22:00:00,15.73221359,0.0001954,53.2185,293.0955,34.6265,192.6404,9.7543e-05,0.00013103,0.0,0 STARLINK-3150,1 49452U 21104AW  21357.91667824  .00013103  00000-0  97543-4 0  9993,2 49452  53.2185 293.0955 0001954  34.6265 192.6404 15.73221359  3690,6727.834,91.532,351.014,348.385,0.0
49452.0,STARLINK-3150,PAYLOAD,2021-12-24 04:00:00,15.73239466,0.0002164,53.2181,291.86,31.128,172.8511,-0.00061675,-0.00086449,0.0,0 STARLINK-3150,1 49452U 21104AW  21358.16667824 -.00086449  00000-0 -61675-3 0  9992,2 49452  53.2181 291.8600 0002164  31.1280 172.8511 15.73239466  7682,6727.783,91.531,351.10400000000016,348.19199999999995,0.0
49452.0,STARLINK-3150,PAYLOAD,2021-12-24 14:00:01,15.73139161,0.0001968,53.2178,289.7965,35.5104,9.6379,0.00024623,0.00033988,0.0,0 STARLINK-3150,1 49452U 21104AW  21358.58334491  .00033988  00000-0  24623-3 0  9999,2 49452  53.2178 289.7965 0001968  35.5104   9.6379 15.73139161  3666,6728.069,91.537,351.2580000000001,348.61,0.0
49452.0,STARLINK-3150,PAYLOAD,2021-12-24 22:00:00,15.73183613,0.0002019,53.2179,288.1474,38.476,95.5353,0.00015997,0.00021874,0.0,0 STARLINK-3150,1 49452U 21104AW  21358.91667824  .00021874  00000-0  15997-3 0  9990,2 49452  53.2179 288.1474 0002019  38.4760  95.5353 15.73183613  3682,6727.941999999999,91.534,351.165,348.449,0.0
49452.0,STARLINK-3150,PAYLOAD,2021-12-25 14:00:01,15.73176545,0.0001905,53.2178,284.8483,33.2718,278.6091,0.00024978,0.00034545,0.0,0 STARLINK-3150,1 49452U 21104AW  21359.58334491  .00034545  00000-0  24978-3 0  9993,2 49452  53.2178 284.8483 0001905  33.2718 278.6091 15.73176545  3693,6727.962,91.535,351.1090000000001,348.545,0.0
49452.0,STARLINK-3150,PAYLOAD,2021-12-25 22:00:00,15.73217089,0.0001923,53.2175,283.1993,33.179,7.5979,5.3606e-05,6.914e-05,0.0,0 STARLINK-3150,1 49452U 21104AW  21359.91667824  .00006914  00000-0  53606-4 0  9999,2 49452  53.2175 283.1993 0001923  33.1790   7.5979 15.73217089  3690,6727.846,91.532,351.005,348.418,0.0
49452.0,STARLINK-3150,PAYLOAD,2021-12-26 04:00:00,15.732119,0.0002076,53.2173,281.9637,30.9221,346.5748,0.00042805,0.00059917,0.0,0 STARLINK-3150,1 49452U 21104AW  21360.16667824  .00059917  00000-0  42805-3 0  9997,2 49452  53.2173 281.9637 0002076  30.9221 346.5748 15.73211900  7996,6727.861,91.532,351.12300000000016,348.33,0.0
49452.0,STARLINK-3150,PAYLOAD,2021-12-26 12:00:00,15.73260588,0.0001793,53.217,280.3125,28.0943,78.378,-0.00039779,-0.00056224,0.0,0 STARLINK-3150,1 49452U 21104AW  21360.50001157 -.00056224  00000-0 -39779-3 0  9992,2 49452  53.2170 280.3125 0001793  28.0943  78.3780 15.73260588  8041,6727.722,91.53,350.7940000000001,348.381,0.0
49452.0,STARLINK-3150,PAYLOAD,2021-12-26 14:00:01,15.73205784,0.0001744,53.217,279.8997,28.2906,190.4409,0.00026521,0.00036773,0.0,0 STARLINK-3150,1 49452U 21104AW  21360.58334491  .00036773  00000-0  26521-3 0  9996,2 49452  53.2170 279.8997 0001744  28.2906 190.4409 15.73205784  3662,6727.879,91.533,350.917,348.57,0.0
49452.0,STARLINK-3150,PAYLOAD,2021-12-26 22:00:00,15.73282567,0.0001720999999999,53.2172,278.2507,27.2864,280.3853,-0.00080067,-0.00111907,0.0,0 STARLINK-3150,1 49452U 21104AW  21360.91667824 -.00111907  00000-0 -80067-3 0  9992,2 49452  53.2172 278.2507 0001721  27.2864 280.3853 15.73282567  3690,6727.66,91.528,350.68300000000005,348.367,0.0
49452.0,STARLINK-3150,PAYLOAD,2021-12-27 04:00:00,15.73202711,0.0001954,53.2174,277.015,26.2561,258.1701,-0.00027973,-0.00039702,0.0,0 STARLINK-3150,1 49452U 21104AW  21361.16667824 -.00039702  00000-0 -27973-3 0  9999,2 49452  53.2174 277.0150 0001954  26.2561 258.1701 15.73202711  8158,6727.887,91.533,351.06699999999995,348.43800000000016,0.0
49452.0,STARLINK-3150,PAYLOAD,2021-12-27 14:00:01,15.73147465,0.0001763,53.2172,274.951,30.088,95.4702,0.00055486,0.00077801,0.0,0 STARLINK-3150,1 49452U 21104AW  21361.58334491  .00077801  00000-0  55486-3 0  9996,2 49452  53.2172 274.9510 0001763  30.0880  95.4702 15.73147465  3665,6728.045,91.536,351.096,348.724,0.0
49452.0,STARLINK-3150,PAYLOAD,2021-12-27 20:00:01,15.73203917,0.0001799,53.2173,273.7142,33.4839,68.7363,0.00020206,0.00027837,0.0,0 STARLINK-3150,1 49452U 21104AW  21361.83334491  .00027837  00000-0  20206-3 0  9990,2 49452  53.2173 273.7142 0001799  33.4839  68.7363 15.73203917  8255,6727.884,91.533,350.959,348.539,0.0
49452.0,STARLINK-3150,PAYLOAD,2021-12-27 22:00:00,15.73216671,0.0001848,53.2171,273.3025,31.5031,182.949,5.2824e-05,6.804e-05,0.0,0 STARLINK-3150,1 49452U 21104AW  21361.91667824  .00006804  00000-0  52824-4 0  9991,2 49452  53.2171 273.3025 0001848  31.5031 182.9490 15.73216671  3680,6727.848000000001,91.532,350.956,348.469,0.0
49452.0,STARLINK-3150,PAYLOAD,2021-12-28 12:00:00,15.73195591,0.000168,53.2168,270.4152,25.831,254.2994,0.00025289,0.00035013,0.0,0 STARLINK-3150,1 49452U 21104AW  21362.50001157  .00035013  00000-0  25289-3 0  9996,2 49452  53.2168 270.4152 0001680  25.8310 254.2994 15.73195591  8364,6727.908,91.533,350.903,348.642,0.0
49452.0,STARLINK-3150,PAYLOAD,2021-12-28 14:00:01,15.73177759,0.0001593,53.2167,270.0024,26.4505,5.9194,0.00063167,0.00088889,0.0,0 STARLINK-3150,1 49452U 21104AW  21362.58334491  .00088889  00000-0  63167-3 0  9990,2 49452  53.2167 270.0024 0001593  26.4505   5.9194 15.73177759  3716,6727.959,91.534,350.895,348.75199999999984,0.0
49452.0,STARLINK-3150,PAYLOAD,2021-12-28 22:00:00,15.73279684,0.0001696999999999,53.2169,268.3538,25.7362,95.5669,-0.00083742,-0.00116931,0.0,0 STARLINK-3150,1 49452U 21104AW  21362.91667824 -.00116931  00000-0 -83742-3 0  9999,2 49452  53.2169 268.3538 0001697  25.7362  95.5669 15.73279684  3684,6727.668000000002,91.529,350.675,348.391,0.0
49452.0,STARLINK-3150,PAYLOAD,2021-12-29 04:00:00,15.73185899,0.0001841,53.2172,267.118,22.3887,75.6671,-2.4685e-05,-4.081e-05,0.0,0 STARLINK-3150,1 49452U 21104AW  21363.16667824 -.00004081  00000-0 -24685-4 0  9991,2 49452  53.2172 267.1180 0001841  22.3887  75.6671 15.73185899  8461,6727.935,91.534,351.039,348.56199999999984,0.0
49452.0,STARLINK-3150,PAYLOAD,2021-12-29 14:00:01,15.73152398,0.0001675,53.2171,265.0539,28.2584,270.9985,0.00064213,0.00090289,0.0,0 STARLINK-3150,1 49452U 21104AW  21363.58335648  .00090289  00000-0  64213-3 0  9996,2 49452  53.2171 265.0539 0001675  28.2584 270.9985 15.73152398  3718,6728.031,91.536,351.023,348.769,0.0
49452.0,STARLINK-3150,PAYLOAD,2021-12-29 21:52:53,15.73213507,8.96e-05,53.2172,263.4244,89.1444,270.9678,4.430600000000001e-05,5.606e-05,0.0,0 STARLINK-3150,1 49452U 21104AW  21363.91173490  .00005606  00000-0  44306-4 0  9999,2 49452  53.2172 263.4244 0000896  89.1444 270.9678 15.73213507  7509,6727.857,91.532,350.324,349.119,0.0
49452.0,STARLINK-3150,PAYLOAD,2021-12-30 02:27:20,15.73212283,0.0001726,53.2175,262.4839,35.24,324.8734,6.0824e-05,7.928e-05,0.0,0 STARLINK-3150,1 49452U 21104AW  21364.10232234  .00007928  00000-0  60824-4 0  9995,2 49452  53.2175 262.4839 0001726  35.2400 324.8734 15.73212283  8613,6727.86,91.532,350.886,348.564,0.0
49452.0,STARLINK-3150,PAYLOAD,2021-12-30 14:00:01,15.73163151,0.0001529,53.2165,260.1055,23.3592,182.578,0.00060503,0.00085021,0.0,0 STARLINK-3150,1 49452U 21104AW  21364.58334491  .00085021  00000-0  60503-3 0  9998,2 49452  53.2165 260.1055 0001529  23.3592 182.5780 15.73163151  3689,6728.0,91.535,350.894,348.837,0.0
49452.0,STARLINK-3150,PAYLOAD,2021-12-30 20:00:01,15.73236213,0.0001616,53.217,258.8694,27.6692,154.9435,-0.00014562,-0.00021039,0.0,0 STARLINK-3150,1 49452U 21104AW  21364.83334491 -.00021039  00000-0 -14562-3 0  9991,2 49452  53.2170 258.8694 0001616  27.6692 154.9435 15.73236213  8734,6727.792,91.531,350.744,348.57,0.0
49452.0,STARLINK-3150,PAYLOAD,2021-12-30 22:16:35,15.7319571,0.0001524,53.2166,258.4003,26.6227,333.4871,0.00012373,0.00016776,0.0,0 STARLINK-3150,1 49452U 21104AW  21364.92819352  .00016776  00000-0  12373-3 0  9993,2 49452  53.2166 258.4003 0001524  26.6227 333.4871 15.73195710  7665,6727.906999999997,91.533,350.798,348.747,0.0
